OBJECT_NAME,OBJECT_ID,EPOCH,MEAN_MOTION,ECCENTRICITY,INCLINATION,RA_OF_ASC_NODE,ARG_OF_PERICENTER,MEAN_ANOMALY,EPHEMERIS_TYPE,CLASSIFICATION_TYPE,NORAD_CAT_ID,ELEMENT_SET_NO,REV_AT_EPOCH,BSTAR,MEAN_MOTION_DOT,MEAN_MOTION_DDOT
ATLAS CENTAUR 2,1963-047A,2026-07-08T04:49:11.152992,14.12556078,.0545736,30.3515,241.8770,62.8356,302.6813,0,U,694,999,14867,.98727E-4,.894E-5,0
THOR AGENA D R/B,1964-002A,2026-07-08T00:26:30.941088,14.34074049,.0031751,99.1153,208.8739,268.1547,91.5999,0,U,733,999,25554,.58583E-4,.116E-5,0
SL-3 R/B,1964-053B,2026-07-07T18:58:48.049824,14.61436749,.0080495,65.0780,339.0994,254.6606,104.5588,0,U,877,999,28434,.44213E-4,.103E-5,0
SL-8 R/B,1967-045B,2026-07-07T21:57:27.891360,14.45692724,.0063009,74.0112,123.5462,102.2365,258.5859,0,U,2802,999,10639,.63509E-4,.203E-5,0
SL-8 R/B,1968-040B,2026-07-08T03:18:39.074400,15.03918734,.0025423,74.0304,67.4407,217.0055,142.9382,0,U,3230,999,10811,.14293E-3,.1941E-4,0
OAO 2,1968-110A,2026-07-07T11:22:50.281248,14.47359906,.00048438,34.9944,316.4053,75.3913,284.7315,0,U,3597,999,3646,.46019645E-4,.152E-5,0
ISIS 1,1969-009A,2026-07-07T06:49:28.251264,11.30435896,.17069628,88.4445,142.1923,207.6262,142.2971,0,U,3669,999,36204,.46248114E-4,.71E-6,0
SERT 2,1970-009A,2026-07-07T19:09:06.126048,13.58740673,.0004247,99.2840,125.4050,209.5037,205.4281,0,U,4327,999,79620,.47735E-4,-.6E-7,0
SL-3 R/B,1971-028B,2026-07-08T04:55:39.279072,15.71884572,.0014418,81.2313,262.0014,206.3830,153.6697,0,U,5118,999,754,.30158E-3,.39532E-3,0
ASTEX 1,1971-089A,2026-07-07T23:16:47.199072,14.50867830,.0017169,92.7001,190.5489,44.8678,315.3912,0,U,5560,999,87974,.71527E-4,.282E-5,0
SL-8 R/B,1971-119B,2026-07-07T19:05:48.998400,14.39670663,.0543112,73.8884,310.8270,252.6529,101.4549,0,U,5730,999,67276,.22044E-3,.4287E-4,0
OAO 3 (COPERNICUS),1972-065A,2026-07-07T11:23:47.167872,14.60072044,.00060018,35.0068,334.8072,56.6096,347.9993,0,U,6153,999,86371,.55832155E-4,.251E-5,0
ATLAS CENTAUR R/B,1972-065B,2026-07-07T09:49:03.819072,14.77958196,.00342202,35.0027,323.9892,297.8597,61.8639,0,U,6155,999,85898,.10425563E-3,.747E-5,0
SL-8 R/B,1975-112B,2026-07-07T23:27:28.899648,14.38255387,.0016456,74.0599,157.6260,221.7031,138.2870,0,U,8459,999,64916,.58505E-4,.152E-5,0
SL-3 R/B,1977-057B,2026-07-08T03:50:00.727296,15.48309245,.0006475,97.5853,6.7236,195.1532,164.9525,0,U,10114,999,68695,.13662E-3,.7122E-4,0
SEASAT 1,1978-064A,2026-07-07T23:45:31.152960,14.46257184,.0001243,108.0185,17.9589,247.9560,112.1454,0,U,10967,999,52390,.69969E-4,.113E-5,0
SL-14 R/B,1979-011B,2026-07-07T21:33:54.713088,14.92033550,.0016459,82.5248,342.4971,21.2341,338.9558,0,U,11267,999,54670,.36084E-4,.392E-5,0
SL-8 R/B,1979-089B,2026-07-07T14:17:56.292288,14.42412898,.0015693,74.0673,229.0776,5.9553,354.1787,0,U,11574,999,45339,.57951E-4,.166E-5,0
SL-14 R/B,1980-005B,2026-07-07T10:53:43.081440,14.91045428,.00170927,82.5132,193.6148,121.1008,239.1891,0,U,11672,999,49433,.42536532E-4,.448E-5,0
SL-8 R/B,1981-003B,2026-07-08T05:29:25.118880,15.14894219,.0250274,82.9376,178.2129,117.8604,244.8229,0,U,12139,999,33290,.2926E-3,.1228E-3,0
SL-3 R/B,1981-046B,2026-07-08T02:47:47.831712,15.44664957,.0016231,81.2304,144.8485,324.0092,36.0058,0,U,12465,999,45700,.1661E-3,.781E-4,0
SL-3 R/B,1981-103B,2026-07-08T03:39:40.950720,15.22454182,.0011655,81.1579,71.9997,237.3121,122.6987,0,U,12904,999,99155,.12798E-3,.2991E-4,0
SL-3 R/B,1982-013B,2026-07-08T02:49:13.110240,15.22927773,.002271,81.1735,19.4857,131.2661,229.0532,0,U,13068,999,42267,.10267E-3,.2452E-4,0
SL-3 R/B,1982-039B,2026-07-08T03:57:41.947776,15.10669727,.0027716,81.1500,76.8515,282.9843,76.8288,0,U,13154,999,39982,.15404E-3,.2594E-4,0
SL-3 R/B,1982-079B,2026-07-08T03:59:39.511392,15.25969401,.0024888,81.1452,50.6684,116.2964,244.0831,0,U,13403,999,39606,.13263E-3,.3464E-4,0
SL-14 R/B,1982-092B,2026-07-08T04:37:19.089120,14.86761616,.0018749,82.5668,28.6451,260.7257,200.3978,0,U,13553,999,34683,.30506E-4,.297E-5,0
SL-3 R/B,1983-010B,2026-07-07T14:16:34.126752,15.49770997,.0013895,81.1001,214.8203,351.7291,8.3724,0,U,13819,999,37649,.17192E-3,.9624E-4,0
SL-3 R/B,1983-075B,2026-07-08T04:15:21.388032,15.40884792,.0021581,97.6109,198.5442,153.2892,206.9470,0,U,14208,999,34869,.16226E-3,.6626E-4,0
COSMOS 1536,1984-013A,2026-07-07T23:02:59.253792,15.25286223,.0013254,82.5452,348.1502,214.5943,145.4434,0,U,14699,999,29094,.14337E-3,.3649E-4,0
SL-14 R/B,1984-027B,2026-07-07T22:53:10.855104,14.86075661,.0016483,82.5427,132.2438,297.8486,62.1060,0,U,14820,999,26549,.34151E-4,.324E-5,0
SL-8 R/B,1985-006B,2026-07-08T01:05:33.700416,14.37842560,.0019263,74.0450,39.6795,283.7901,228.9059,0,U,15483,999,17132,.43887E-4,.106E-5,0
