ATLAS CENTAUR 2         
1 00694U 63047A   26189.20082353  .00000894  00000+0  98727-4 0  9995
2 00694  30.3515 241.8770 0545736  62.8356 302.6813 14.12556078148675
THOR AGENA D R/B        
1 00733U 64002A   26189.01841367  .00000116  00000+0  58583-4 0  9991
2 00733  99.1153 208.8739 0031751 268.1547  91.5999 14.34074049255549
SL-3 R/B                
1 00877U 64053B   26188.79083391  .00000103  00000+0  44213-4 0  9996
2 00877  65.0780 339.0994 0080495 254.6606 104.5588 14.61436749284349
SL-8 R/B                
1 02802U 67045B   26188.91490615  .00000203  00000+0  63509-4 0  9995
2 02802  74.0112 123.5462 0063009 102.2365 258.5859 14.45692724106394
SL-8 R/B                
1 03230U 68040B   26189.13795225  .00001941  00000+0  14293-3 0  9992
2 03230  74.0304  67.4407 0025423 217.0055 142.9382 15.03918734108113
OAO 2                   
1 03597U 68110A   26188.47419307  .00000152  00000+0  46020-4 0  9993
2 03597  34.9944 316.4053 0004843  75.3913 284.7315 14.47359906 36465
ISIS 1                  
1 03669U 69009A   26188.28435476  .00000071  00000+0  46248-4 0  9997
2 03669  88.4445 142.1923 1706962 207.6262 142.2971 11.30435896362048
SERT 2                  
1 04327U 70009A   26188.79798757 -.00000006  00000+0  47735-4 0  9992
2 04327  99.2840 125.4050 0004247 209.5037 205.4281 13.58740673796200
SL-3 R/B                
1 05118U 71028B   26189.20531573  .00039532  00000+0  30158-3 0  9996
2 05118  81.2313 262.0014 0014418 206.3830 153.6697 15.71884572  7541
ASTEX 1                 
1 05560U 71089A   26188.96999073  .00000282  00000+0  71527-4 0  9995
2 05560  92.7001 190.5489 0017169  44.8678 315.3912 14.50867830879745
SL-8 R/B                
1 05730U 71119B   26188.79570600  .00004287  00000+0  22044-3 0  9998
2 05730  73.8884 310.8270 0543112 252.6529 101.4549 14.39670663672760
OAO 3 (COPERNICUS)      
1 06153U 72065A   26188.47485148  .00000251  00000+0  55832-4 0  9995
2 06153  35.0068 334.8072 0006001  56.6096 347.9993 14.60072044863712
ATLAS CENTAUR R/B       
1 06155U 72065B   26188.40907198  .00000747  00000+0  10426-3 0  9993
2 06155  35.0027 323.9892 0034220 297.8597  61.8639 14.77958196858988
SL-8 R/B                
1 08459U 75112B   26188.97741782  .00000152  00000+0  58505-4 0  9996
2 08459  74.0599 157.6260 0016456 221.7031 138.2870 14.38255387649168
SL-3 R/B                
1 10114U 77057B   26189.15973064  .00007122  00000+0  13662-3 0  9996
2 10114  97.5853   6.7236 0006475 195.1532 164.9525 15.48309245686955
SEASAT 1                
1 10967U 78064A   26188.98994390  .00000113  00000+0  69969-4 0  9991
2 10967 108.0185  17.9589 0001243 247.9560 112.1454 14.46257184523909
SL-14 R/B               
1 11267U 79011B   26188.89854992  .00000392  00000+0  36084-4 0  9992
2 11267  82.5248 342.4971 0016459  21.2341 338.9558 14.92033550546701
SL-8 R/B                
1 11574U 79089B   26188.59579042  .00000166  00000+0  57951-4 0  9990
2 11574  74.0673 229.0776 0015693   5.9553 354.1787 14.42412898453393
SL-14 R/B               
1 11672U 80005B   26188.45397085  .00000448  00000+0  42537-4 0  9996
2 11672  82.5132 193.6148 0017092 121.1008 239.1891 14.91045428494338
SL-8 R/B                
1 12139U 81003B   26189.22876295  .00012280  00000+0  29260-3 0  9999
2 12139  82.9376 178.2129 0250274 117.8604 244.8229 15.14894219332902
SL-3 R/B                
1 12465U 81046B   26189.11652583  .00007810  00000+0  16610-3 0  9996
2 12465  81.2304 144.8485 0016231 324.0092  36.0058 15.44664957457004
SL-3 R/B                
1 12904U 81103B   26189.15255730  .00002991  00000+0  12798-3 0  9993
2 12904  81.1579  71.9997 0011655 237.3121 122.6987 15.22454182991556
SL-3 R/B                
1 13068U 82013B   26189.11751285  .00002452  00000+0  10267-3 0  9999
2 13068  81.1735  19.4857 0022710 131.2661 229.0532 15.22927773422670
SL-3 R/B                
1 13154U 82039B   26189.16506884  .00002594  00000+0  15404-3 0  9996
2 13154  81.1500  76.8515 0027716 282.9843  76.8288 15.10669727399826
SL-3 R/B                
1 13403U 82079B   26189.16642953  .00003464  00000+0  13263-3 0  9993
2 13403  81.1452  50.6684 0024888 116.2964 244.0831 15.25969401396060
SL-14 R/B               
1 13553U 82092B   26189.19258205  .00000297  00000+0  30506-4 0  9991
2 13553  82.5668  28.6451 0018749 260.7257 200.3978 14.86761616346837
SL-3 R/B                
1 13819U 83010B   26188.59483943  .00009624  00000+0  17192-3 0  9997
2 13819  81.1001 214.8203 0013895 351.7291   8.3724 15.49770997376490
SL-3 R/B                
1 14208U 83075B   26189.17733088  .00006626  00000+0  16226-3 0  9990
2 14208  97.6109 198.5442 0021581 153.2892 206.9470 15.40884792348695
COSMOS 1536             
1 14699U 84013A   26188.96040803  .00003649  00000+0  14337-3 0  9992
2 14699  82.5452 348.1502 0013254 214.5943 145.4434 15.25286223290948
SL-14 R/B               
1 14820U 84027B   26188.95359786  .00000324  00000+0  34151-4 0  9999
2 14820  82.5427 132.2438 0016483 297.8486  62.1060 14.86075661265499
SL-8 R/B                
1 15483U 85006B   26189.04552894  .00000106  00000+0  43887-4 0  9993
2 15483  74.0450  39.6795 0019263 283.7901 228.9059 14.37842560171322
